CCSDS_OMM_VERS,COMMENT,CREATION_DATE,ORIGINATOR,OBJECT_NAME,OBJECT_ID,CENTER_NAME,REF_FRAME,TIME_SYSTEM,MEAN_ELEMENT_THEORY,EPOCH,MEAN_MOTION,ECCENTRICITY,INCLINATION,RA_OF_ASC_NODE,ARG_OF_PERICENTER,MEAN_ANOMALY,EPHEMERIS_TYPE,CLASSIFICATION_TYPE,NORAD_CAT_ID,ELEMENT_SET_NO,REV_AT_EPOCH,BSTAR,MEAN_MOTION_DOT,MEAN_MOTION_DDOT,SEMIMAJOR_AXIS,PERIOD,APOAPSIS,PERIAPSIS,OBJECT_TYPE,RCS_SIZE,COUNTRY_CODE,LAUNCH_DATE,SITE,DECAY_DATE,FILE,GP_ID,TLE_LINE0,TLE_LINE1,TLE_LINE2,NORAD_KEY
3.0,GENERATED VIA SPACE-TRACK.ORG API,2026-05-06T14:56:52,18 SPCS,INSAT 2A,1992-041A,EARTH,TEME,UTC,SGP4,2026-05-06T09:53:26.851776,1.00233365,0.0009417,14.502,352.1596,291.6724,258.801,0,U,22027,999,12363,0.00000000000000,-0.00000052,0.0000000000000,42175.506,1436.647,35837.088,35757.654,PAYLOAD,LARGE,IND,1992-07-09,FRGUI,,5177464,322304669,0 INSAT 2A,1 22027U 92041A   26126.41211634 -.00000052  00000-0  00000+0 0  9995,2 22027  14.5020 352.1596 0009417 291.6724 258.8010  1.00233365123632,22027
3.0,GENERATED VIA SPACE-TRACK.ORG API,2026-05-06T14:56:52,18 SPCS,EXPRESS 1,1994-067A,EARTH,TEME,UTC,SGP4,2026-05-06T08:03:37.808064,0.99831067,0.000558,14.5081,2.3328,267.1284,86.8175,0,U,23319,999,11515,0.00000000000000,-0.00000022,0.0000000000000,42288.736,1442.437,35934.198,35887.003,PAYLOAD,LARGE,CIS,1994-10-13,TTMTR,,5177503,322305656,0 EXPRESS 1,1 23319U 94067A   26126.33585426 -.00000022  00000-0  00000+0 0  9991,2 23319  14.5081   2.3328 0005580 267.1284  86.8175  0.99831067115156,23319
3.0,GENERATED VIA SPACE-TRACK.ORG API,2026-05-06T14:56:52,18 SPCS,TELECOM 2B,1992-021A,EARTH,TEME,UTC,SGP4,2026-05-06T13:39:53.070336,0.99514427,0.0015196,14.5338,4.04,77.5528,132.6658,0,U,21939,999,11697,0.00000000000000,-0.00000325,0.0000000000000,42378.392,1447.026,36064.655,35935.859,PAYLOAD,LARGE,FR,1992-04-15,FRGUI,,5177462,322304143,0 TELECOM 2B,1 21939U 92021A   26126.56936424 -.00000325  00000-0  00000+0 0  9994,2 21939  14.5338   4.0400 0015196  77.5528 132.6658  0.99514427116970,21939
3.0,GENERATED VIA SPACE-TRACK.ORG API,2026-05-06T10:08:52,18 SPCS,GALS 1,1994-002A,EARTH,TEME,UTC,SGP4,2026-05-06T04:48:02.229984,1.00329468,0.00102134,14.535,354.1731,237.1374,109.9931,0,U,22963,999,11828,0.00000000000000,0.00000105,0.0000000000000,42148.569,1435.271,35813.482,35727.386,PAYLOAD,LARGE,CIS,1994-01-20,TTMTR,,5176958,322264983,0 GALS 1,1 22963U 94002A   26126.20002581  .00000105  00000-0  00000-0 0  9998,2 22963  14.5350 354.1731 0010213 237.1374 109.9931  1.00329468118285,22963
3.0,GENERATED VIA SPACE-TRACK.ORG API,2026-05-06T10:08:52,18 SPCS,BRAZILSAT 2,1986-026B,EARTH,TEME,UTC,SGP4,2026-05-06T03:24:38.763648,0.99636169,0.00040359,14.5435,350.7366,345.2981,196.1636,0,U,16650,999,4596,0.00000000000000,-0.00000036,0.0000000000000,42343.865,1445.258,35982.82,35948.64,PAYLOAD,LARGE,BRAZ,1986-03-28,FRGUI,,5176958,322262537,0 BRAZILSAT 2,1 16650U 86026B   26126.14211532 -.00000036  00000-0  00000-0 0  9996,2 16650  14.5435 350.7366 0004036 345.2981 196.1636  0.99636169 45962,16650
3.0,GENERATED VIA SPACE-TRACK.ORG API,2026-05-06T14:56:52,18 SPCS,THOR 1 (MARCOPOLO 2),1990-074A,EARTH,TEME,UTC,SGP4,2026-05-06T12:26:19.703904,0.99211955,0.0003537,14.5499,6.9604,285.6834,280.2308,0,U,20762,999,4579,0.00000000000000,-0.00000263,0.0000000000000,42464.483,1451.438,36101.367,36071.328,PAYLOAD,LARGE,NOR,1990-08-18,AFETR,,5177422,322303144,0 THOR 1 (MARCOPOLO 2),1 20762U 90074A   26126.51828361 -.00000263  00000-0  00000+0 0  9999,2 20762  14.5499   6.9604 0003537 285.6834 280.2308  0.99211955 45799,20762
3.0,GENERATED VIA SPACE-TRACK.ORG API,2026-05-06T14:56:52,18 SPCS,PAS 1,1988-051C,EARTH,TEME,UTC,SGP4,2026-05-06T06:27:04.149792,0.99393404,0.0003262,14.5522,4.9737,356.9154,351.5623,0,U,19217,999,14775,0.00000000000000,0.00000036,0.0000000000000,42412.786,1448.788,36048.486,36020.816,PAYLOAD,LARGE,US,1988-06-15,FRGUI,,5177392,322302771,0 PAS 1,1 19217U 88051C   26126.26879803  .00000036  00000-0  00000+0 0  9990,2 19217  14.5522   4.9737 0003262 356.9154 351.5623  0.99393404147757,19217
3.0,GENERATED VIA SPACE-TRACK.ORG API,2026-05-06T14:56:52,18 SPCS,SUPERBIRD B1,1992-010A,EARTH,TEME,UTC,SGP4,2026-05-06T11:28:03.081216,0.9905367,0.0011775,14.5529,6.6319,123.6897,356.7987,0,U,21893,999,12390,0.00000000000000,-0.00000040,0.0000000000000,42509.709,1453.757,36181.629,36081.518,PAYLOAD,LARGE,JPN,1992-02-26,FRGUI,,5177460,322304618,0 SUPERBIRD B1,1 21893U 92010A   26126.47781344 -.00000040  00000-0  00000+0 0  9994,2 21893  14.5529   6.6319 0011775 123.6897 356.7987  0.99053670123902,21893
3.0,GENERATED VIA SPACE-TRACK.ORG API,2026-05-06T10:08:52,18 SPCS,KUPON,1997-070A,EARTH,TEME,UTC,SGP4,2026-05-06T02:34:19.866432,1.0026881,0.00043697,14.5549,354.9515,315.0279,44.9014,0,U,25045,999,10422,0.00000000000000,-0.00000261,0.0000000000000,42165.566,1436.14,35805.856,35769.006,PAYLOAD,MEDIUM,CIS,1997-11-12,TTMTR,,5176958,322265265,0 KUPON,1 25045U 97070A   26126.10717438 -.00000261  00000-0  00000-0 0  9997,2 25045  14.5549 354.9515 0004370 315.0279  44.9014  1.00268810104226,25045
3.0,GENERATED VIA SPACE-TRACK.ORG API,2026-05-06T14:56:52,18 SPCS,DFS 2,1990-063B,EARTH,TEME,UTC,SGP4,2026-05-06T09:40:37.713792,0.99553289,0.0006337,14.5586,3.9597,280.9763,75.9421,0,U,20706,999,12250,0.00000000000000,-0.00000192,0.0000000000000,42367.363,1446.462,36016.076,35962.38,PAYLOAD,LARGE,GER,1990-07-24,FRGUI,,5177420,322303120,0 DFS 2,1 20706U 90063B   26126.40321428 -.00000192  00000-0  00000+0 0  9996,2 20706  14.5586   3.9597 0006337 280.9763  75.9421  0.99553289122501,20706
3.0,GENERATED VIA SPACE-TRACK.ORG API,2026-05-06T14:56:52,18 SPCS,ITALSAT 1,1991-003A,EARTH,TEME,UTC,SGP4,2026-05-06T12:31:52.331808,0.99955146,0.0014397,14.5599,351.8235,49.729,274.9382,0,U,21055,999,11666,0.00000000000000,-0.00000121,0.0000000000000,42253.732,1440.646,35936.429,35814.764,PAYLOAD,LARGE,IT,1991-01-15,FRGUI,,5177432,322303768,0 ITALSAT 1,1 21055U 91003A   26126.52213347 -.00000121  00000-0  00000+0 0  9994,2 21055  14.5599 351.8235 0014397  49.7290 274.9382  0.99955146116663,21055
3.0,GENERATED VIA SPACE-TRACK.ORG API,2026-05-06T14:56:52,18 SPCS,HGS 4 (GALAXY 4),1993-039A,EARTH,TEME,UTC,SGP4,2026-05-06T11:18:06.770016,1.00264581,0.0017136,14.5706,355.4598,39.4333,73.7902,0,U,22694,999,11858,0.00000000000000,-0.00000102,0.0000000000000,42166.752,1436.2,35860.874,35716.36,PAYLOAD,LARGE,US,1993-06-25,FRGUI,,5177484,322304920,0 HGS 4 (GALAXY 4),1 22694U 93039A   26126.47091169 -.00000102  00000-0  00000+0 0  9994,2 22694  14.5706 355.4598 0017136  39.4333  73.7902  1.00264581118588,22694
3.0,GENERATED VIA SPACE-TRACK.ORG API,2026-05-06T10:08:52,18 SPCS,EXPRESS 2,1996-058A,EARTH,TEME,UTC,SGP4,2026-05-06T02:35:38.684832,1.00323581,0.00105721,14.5728,354.6786,357.0794,1.8855,0,U,24435,999,10838,0.00000000000000,-0.00000259,0.0000000000000,42150.218,1435.355,35816.644,35727.521,PAYLOAD,LARGE,CIS,1996-09-26,TTMTR,,5176958,322265197,0 EXPRESS 2,1 24435U 96058A   26126.10808663 -.00000259  00000-0  00000-0 0  9992,2 24435  14.5728 354.6786 0010572 357.0794   1.8855  1.00323581108386,24435
3.0,GENERATED VIA SPACE-TRACK.ORG API,2026-05-06T14:56:52,18 SPCS,EUTE 1-F5 (ECS 5),1988-063B,EARTH,TEME,UTC,SGP4,2026-05-06T11:27:28.559232,0.98163796,0.0009077,14.575,346.2684,156.5634,340.8297,0,U,19331,999,11393,0.00000000000000,-0.00000029,0.0000000000000,42766.228,1466.936,36426.912,36349.274,PAYLOAD,LARGE,EUTE,1988-07-21,FRGUI,,5177393,322302289,0 EUTE 1-F5 (ECS 5),1 19331U 88063B   26126.47741388 -.00000029  00000-0  00000+0 0  9992,2 19331  14.5750 346.2684 0009077 156.5634 340.8297  0.98163796113936,19331
3.0,GENERATED VIA SPACE-TRACK.ORG API,2026-05-06T14:56:52,18 SPCS,TELECOM 2A,1991-084A,EARTH,TEME,UTC,SGP4,2026-05-06T02:14:38.704128,0.98951759,0.0002272,14.5877,6.7766,294.1852,270.1381,0,U,21813,999,12367,0.00000000000000,-0.00000223,0.0000000000000,42538.891,1455.255,36170.421,36151.091,PAYLOAD,LARGE,FR,1991-12-16,FRGUI,,5177458,322304594,0 TELECOM 2A,1 21813U 91084A   26126.09350352 -.00000223  00000-0  00000+0 0  9998,2 21813  14.5877   6.7766 0002272 294.1852 270.1381  0.98951759123679,21813
3.0,GENERATED VIA SPACE-TRACK.ORG API,2026-05-06T14:56:52,18 SPCS,INTELSAT 604,1990-056A,EARTH,TEME,UTC,SGP4,2026-05-06T08:48:38.761056,0.98434602,0.0006724,14.5919,10.2754,319.0185,231.174,0,U,20667,999,4606,0.00000000000000,-0.00000099,0.0000000000000,42687.755,1462.9,36338.323,36280.917,PAYLOAD,LARGE,ITSO,1990-06-23,AFETR,,5177419,322303609,0 INTELSAT 604,1 20667U 90056A   26126.36711529 -.00000099  00000-0  00000+0 0  9990,2 20667  14.5919  10.2754 0006724 319.0185 231.1740  0.98434602 46067,20667
3.0,GENERATED VIA SPACE-TRACK.ORG API,2026-05-06T14:56:52,18 SPCS,SBS 5,1988-081B,EARTH,TEME,UTC,SGP4,2026-05-06T03:48:35.783136,0.99785903,0.0007437,14.5959,1.2512,327.2143,224.5338,0,U,19484,999,4604,0.00000000000000,-0.00000142,0.0000000000000,42301.495,1443.09,35954.819,35891.9,PAYLOAD,LARGE,US,1988-09-08,FRGUI,,5177395,322302812,0 SBS 5,1 19484U 88081B   26126.15874749 -.00000142  00000-0  00000+0 0  9990,2 19484  14.5959   1.2512 0007437 327.2143 224.5338  0.99785903 46046,19484
3.0,GENERATED VIA SPACE-TRACK.ORG API,2026-05-06T14:56:52,18 SPCS,EKRAN 21,2001-014A,EARTH,TEME,UTC,SGP4,2026-05-06T07:54:28.576224,0.99589099,0.0028959,14.6027,13.4782,69.9616,103.9613,0,U,26736,999,9151,0.00000000000000,0.00000056,0.0000000000000,42357.206,1445.941,36101.733,35856.409,PAYLOAD,LARGE,CIS,2001-04-07,TTMTR,,5177598,322308404,0 EKRAN 21,1 26736U 01014A   26126.32949741  .00000056  00000-0  00000+0 0  9996,2 26736  14.6027  13.4782 0028959  69.9616 103.9613  0.99589099 91518,26736
